CCSDS_OMM_VERS = 2.0
CREATION_DATE  = 
ORIGINATOR     = 

OBJECT_NAME    = ATLAS CENTAUR R/B
OBJECT_ID      = 1972-065B
CENTER_NAME    = EARTH
REF_FRAME      = TEME
TIME_SYSTEM    = UTC
MEAN_ELEMENT_THEORY = SGP/SGP4

EPOCH          = 2026-03-14T06:54:45.432576
MEAN_MOTION    = 14.77701700
ECCENTRICITY   = .00330753
INCLINATION    = 35.0010
RA_OF_ASC_NODE = 278.8058
ARG_OF_PERICENTER = 47.8661
MEAN_ANOMALY   = 312.4843

EPHEMERIS_TYPE = 0
CLASSIFICATION_TYPE = U
NORAD_CAT_ID   = 6155
ELEMENT_SET_NO = 999
REV_AT_EPOCH   = 84194
BSTAR          = .20613394E-3
MEAN_MOTION_DOT = .149E-4
MEAN_MOTION_DDOT = 0

CCSDS_OMM_VERS = 2.0
CREATION_DATE  = 
ORIGINATOR     = 

OBJECT_NAME    = SL-8 R/B
OBJECT_ID      = 1975-112B
CENTER_NAME    = EARTH
REF_FRAME      = TEME
TIME_SYSTEM    = UTC
MEAN_ELEMENT_THEORY = SGP/SGP4

EPOCH          = 2026-03-14T05:35:40.790400
MEAN_MOTION    = 14.38206645
ECCENTRICITY   = .00144284
INCLINATION    = 74.0634
RA_OF_ASC_NODE = 10.5548
ARG_OF_PERICENTER = 101.8268
MEAN_ANOMALY   = 258.4505

EPHEMERIS_TYPE = 0
CLASSIFICATION_TYPE = U
NORAD_CAT_ID   = 8459
ELEMENT_SET_NO = 999
REV_AT_EPOCH   = 63252
BSTAR          = .97592009E-4
MEAN_MOTION_DOT = .271E-5
MEAN_MOTION_DDOT = 0

CCSDS_OMM_VERS = 2.0
CREATION_DATE  = 
ORIGINATOR     = 

OBJECT_NAME    = SL-3 R/B
OBJECT_ID      = 1977-057B
CENTER_NAME    = EARTH
REF_FRAME      = TEME
TIME_SYSTEM    = UTC
MEAN_ELEMENT_THEORY = SGP/SGP4

EPOCH          = 2026-03-14T06:01:28.492608
MEAN_MOTION    = 15.45635458
ECCENTRICITY   = .00061563
INCLINATION    = 97.5778
RA_OF_ASC_NODE = 245.3730
ARG_OF_PERICENTER = 265.2273
MEAN_ANOMALY   = 94.8273

EPHEMERIS_TYPE = 0
CLASSIFICATION_TYPE = U
NORAD_CAT_ID   = 10114
ELEMENT_SET_NO = 999
REV_AT_EPOCH   = 66903
BSTAR          = .33087115E-3
MEAN_MOTION_DOT = .15868E-3
MEAN_MOTION_DDOT = 0

CCSDS_OMM_VERS = 2.0
CREATION_DATE  = 
ORIGINATOR     = 

OBJECT_NAME    = SEASAT 1
OBJECT_ID      = 1978-064A
CENTER_NAME    = EARTH
REF_FRAME      = TEME
TIME_SYSTEM    = UTC
MEAN_ELEMENT_THEORY = SGP/SGP4

EPOCH          = 2026-03-14T03:08:07.999296
MEAN_MOTION    = 14.46164170
ECCENTRICITY   = .00024051
INCLINATION    = 108.0101
RA_OF_ASC_NODE = 134.8186
ARG_OF_PERICENTER = 283.9561
MEAN_ANOMALY   = 76.1317

EPHEMERIS_TYPE = 0
CLASSIFICATION_TYPE = U
NORAD_CAT_ID   = 10967
ELEMENT_SET_NO = 999
REV_AT_EPOCH   = 50715
BSTAR          = .1124174E-3
MEAN_MOTION_DOT = .265E-5
MEAN_MOTION_DDOT = 0

CCSDS_OMM_VERS = 2.0
CREATION_DATE  = 
ORIGINATOR     = 

OBJECT_NAME    = SL-14 R/B
OBJECT_ID      = 1979-011B
CENTER_NAME    = EARTH
REF_FRAME      = TEME
TIME_SYSTEM    = UTC
MEAN_ELEMENT_THEORY = SGP/SGP4

EPOCH          = 2026-03-14T03:23:22.280640
MEAN_MOTION    = 14.91914084
ECCENTRICITY   = .00171551
INCLINATION    = 82.5204
RA_OF_ASC_NODE = 92.3456
ARG_OF_PERICENTER = 46.7665
MEAN_ANOMALY   = 313.4983

EPHEMERIS_TYPE = 0
CLASSIFICATION_TYPE = U
NORAD_CAT_ID   = 11267
ELEMENT_SET_NO = 999
REV_AT_EPOCH   = 52944
BSTAR          = .62218183E-4
MEAN_MOTION_DOT = .656E-5
MEAN_MOTION_DDOT = 0

CCSDS_OMM_VERS = 2.0
CREATION_DATE  = 
ORIGINATOR     = 

OBJECT_NAME    = SL-8 R/B
OBJECT_ID      = 1979-089B
CENTER_NAME    = EARTH
REF_FRAME      = TEME
TIME_SYSTEM    = UTC
MEAN_ELEMENT_THEORY = SGP/SGP4

EPOCH          = 2026-03-14T07:45:26.403264
MEAN_MOTION    = 14.42353966
ECCENTRICITY   = .00171122
INCLINATION    = 74.0667
RA_OF_ASC_NODE = 82.4653
ARG_OF_PERICENTER = 254.6810
MEAN_ANOMALY   = 105.2456

EPHEMERIS_TYPE = 0
CLASSIFICATION_TYPE = U
NORAD_CAT_ID   = 11574
ELEMENT_SET_NO = 999
REV_AT_EPOCH   = 43677
BSTAR          = .10399484E-3
MEAN_MOTION_DOT = .318E-5
MEAN_MOTION_DDOT = 0

CCSDS_OMM_VERS = 2.0
CREATION_DATE  = 
ORIGINATOR     = 

OBJECT_NAME    = SL-14 R/B
OBJECT_ID      = 1980-005B
CENTER_NAME    = EARTH
REF_FRAME      = TEME
TIME_SYSTEM    = UTC
MEAN_ELEMENT_THEORY = SGP/SGP4

EPOCH          = 2026-03-14T02:09:42.035040
MEAN_MOTION    = 14.90935749
ECCENTRICITY   = .00165341
INCLINATION    = 82.5137
RA_OF_ASC_NODE = 303.0621
ARG_OF_PERICENTER = 144.2354
MEAN_ANOMALY   = 215.9976

EPHEMERIS_TYPE = 0
CLASSIFICATION_TYPE = U
NORAD_CAT_ID   = 11672
ELEMENT_SET_NO = 999
REV_AT_EPOCH   = 47714
BSTAR          = .58067595E-4
MEAN_MOTION_DOT = .6E-5
MEAN_MOTION_DDOT = 0

CCSDS_OMM_VERS = 2.0
CREATION_DATE  = 
ORIGINATOR     = 

OBJECT_NAME    = SL-8 R/B
OBJECT_ID      = 1981-003B
CENTER_NAME    = EARTH
REF_FRAME      = TEME
TIME_SYSTEM    = UTC
MEAN_ELEMENT_THEORY = SGP/SGP4

EPOCH          = 2026-03-14T00:58:06.157920
MEAN_MOTION    = 15.11155957
ECCENTRICITY   = .02617258
INCLINATION    = 82.9385
RA_OF_ASC_NODE = 286.0010
ARG_OF_PERICENTER = 163.4787
MEAN_ANOMALY   = 197.5186

EPHEMERIS_TYPE = 0
CLASSIFICATION_TYPE = U
NORAD_CAT_ID   = 12139
ELEMENT_SET_NO = 999
REV_AT_EPOCH   = 31533
BSTAR          = .58016532E-3
MEAN_MOTION_DOT = .22716E-3
MEAN_MOTION_DDOT = 0

CCSDS_OMM_VERS = 2.0
CREATION_DATE  = 
ORIGINATOR     = 

OBJECT_NAME    = SL-3 R/B
OBJECT_ID      = 1981-046B
CENTER_NAME    = EARTH
REF_FRAME      = TEME
TIME_SYSTEM    = UTC
MEAN_ELEMENT_THEORY = SGP/SGP4

EPOCH          = 2026-03-14T06:16:59.268576
MEAN_MOTION    = 15.42120189
ECCENTRICITY   = .00191817
INCLINATION    = 81.2296
RA_OF_ASC_NODE = 284.2533
ARG_OF_PERICENTER = 6.5249
MEAN_ANOMALY   = 353.6239

EPHEMERIS_TYPE = 0
CLASSIFICATION_TYPE = U
NORAD_CAT_ID   = 12465
ELEMENT_SET_NO = 999
REV_AT_EPOCH   = 43913
BSTAR          = .33936229E-3
MEAN_MOTION_DOT = .14655E-3
MEAN_MOTION_DDOT = 0

CCSDS_OMM_VERS = 2.0
CREATION_DATE  = 
ORIGINATOR     = 

OBJECT_NAME    = SL-3 R/B
OBJECT_ID      = 1981-103B
CENTER_NAME    = EARTH
REF_FRAME      = TEME
TIME_SYSTEM    = UTC
MEAN_ELEMENT_THEORY = SGP/SGP4

EPOCH          = 2026-03-14T05:52:12.562176
MEAN_MOTION    = 15.21438536
ECCENTRICITY   = .0012366
INCLINATION    = 81.1590
RA_OF_ASC_NODE = 208.0889
ARG_OF_PERICENTER = 270.2296
MEAN_ANOMALY   = 89.7518

EPHEMERIS_TYPE = 0
CLASSIFICATION_TYPE = U
NORAD_CAT_ID   = 12904
ELEMENT_SET_NO = 999
REV_AT_EPOCH   = 97392
BSTAR          = .31497083E-3
MEAN_MOTION_DOT = .7112E-4
MEAN_MOTION_DDOT = 0

CCSDS_OMM_VERS = 2.0
CREATION_DATE  = 
ORIGINATOR     = 

OBJECT_NAME    = SL-3 R/B
OBJECT_ID      = 1982-013B
CENTER_NAME    = EARTH
REF_FRAME      = TEME
TIME_SYSTEM    = UTC
MEAN_ELEMENT_THEORY = SGP/SGP4

EPOCH          = 2026-03-14T06:01:06.910752
MEAN_MOTION    = 15.22064863
ECCENTRICITY   = .00228847
INCLINATION    = 81.1759
RA_OF_ASC_NODE = 155.4252
ARG_OF_PERICENTER = 162.0678
MEAN_ANOMALY   = 198.1367

EPHEMERIS_TYPE = 0
CLASSIFICATION_TYPE = U
NORAD_CAT_ID   = 13068
ELEMENT_SET_NO = 999
REV_AT_EPOCH   = 40504
BSTAR          = .21870033E-3
MEAN_MOTION_DOT = .5063E-4
MEAN_MOTION_DDOT = 0

CCSDS_OMM_VERS = 2.0
CREATION_DATE  = 
ORIGINATOR     = 

OBJECT_NAME    = SL-3 R/B
OBJECT_ID      = 1982-039B
CENTER_NAME    = EARTH
REF_FRAME      = TEME
TIME_SYSTEM    = UTC
MEAN_ELEMENT_THEORY = SGP/SGP4

EPOCH          = 2026-03-14T05:29:31.068384
MEAN_MOTION    = 15.10110966
ECCENTRICITY   = .0029521
INCLINATION    = 81.1576
RA_OF_ASC_NODE = 210.7287
ARG_OF_PERICENTER = 309.6452
MEAN_ANOMALY   = 50.2169

EPHEMERIS_TYPE = 0
CLASSIFICATION_TYPE = U
NORAD_CAT_ID   = 13154
ELEMENT_SET_NO = 999
REV_AT_EPOCH   = 38232
BSTAR          = .1956952E-3
MEAN_MOTION_DOT = .3243E-4
MEAN_MOTION_DDOT = 0

