ATLAS CENTAUR R/B       
1 06155U 72065B   26073.28802584  .00001490  00000+0  20613-3 0  9990
2 06155  35.0010 278.8058 0033075  47.8661 312.4843 14.77701700841941
SL-8 R/B                
1 08459U 75112B   26073.23311100  .00000271  00000+0  97592-4 0  9996
2 08459  74.0634  10.5548 0014428 101.8268 258.4505 14.38206645632526
SL-3 R/B                
1 10114U 77057B   26073.25102422  .00015868  00000+0  33087-3 0  9990
2 10114  97.5778 245.3730 0006156 265.2273  94.8273 15.45635458669034
SEASAT 1                
1 10967U 78064A   26073.13064814  .00000265  00000+0  11242-3 0  9998
2 10967 108.0101 134.8186 0002405 283.9561  76.1317 14.46164170507159
SL-14 R/B               
1 11267U 79011B   26073.14123010  .00000656  00000+0  62218-4 0  9994
2 11267  82.5204  92.3456 0017155  46.7665 313.4983 14.91914084529448
SL-8 R/B                
1 11574U 79089B   26073.32322226  .00000318  00000+0  10399-3 0  9997
2 11574  74.0667  82.4653 0017112 254.6810 105.2456 14.42353966436779
SL-14 R/B               
1 11672U 80005B   26073.09006985  .00000600  00000+0  58068-4 0  9991
2 11672  82.5137 303.0621 0016534 144.2354 215.9976 14.90935749477145
SL-8 R/B                
1 12139U 81003B   26073.04034905  .00022716  00000+0  58017-3 0  9992
2 12139  82.9385 286.0010 0261725 163.4787 197.5186 15.11155957315331
SL-3 R/B                
1 12465U 81046B   26073.26179709  .00014655  00000+0  33936-3 0  9993
2 12465  81.2296 284.2533 0019181   6.5249 353.6239 15.42120189439135
SL-3 R/B                
1 12904U 81103B   26073.24458984  .00007112  00000+0  31497-3 0  9998
2 12904  81.1590 208.0889 0012366 270.2296  89.7518 15.21438536973929
SL-3 R/B                
1 13068U 82013B   26073.25077443  .00005063  00000+0  21870-3 0  9996
2 13068  81.1759 155.4252 0022884 162.0678 198.1367 15.22064863405044
SL-3 R/B                
1 13154U 82039B   26073.22883181  .00003243  00000+0  19570-3 0  9993
2 13154  81.1576 210.7287 0029521 309.6452  50.2169 15.10110966382320
